     2.10           G: GLONASS NAV DATA                     RINEX VERSION / TYPE
teqc  2015Jun23                         20220214 01:25:43UTCPGM / RUN BY / DATE
Linux 2.4.21-27.ELsmp|Opteron|gcc -static|Linux x86_64|=+   COMMENT
  2022     1    21   -2.328306436539D-09                    CORR TO SYSTEM TIME
                                                            END OF HEADER
 5 22  1 22 21 45  0.0 8.642021566629D-05 9.094947017729D-13 7.740000000000D+04
   -1.626035644531D+03-2.340014457703D+00 9.313225746155D-10 0.000000000000D+00
    1.216855664062D+04-1.974710464478D+00 2.793967723846D-09 1.000000000000D+00
    2.237245263672D+04 9.018392562866D-01-1.862645149231D-09 0.000000000000D+00
15 22  1 22 21 45  0.0 9.871926158667D-05-0.000000000000D+00 7.740000000000D+04
   -2.367393847656D+04-6.028175354004D-03 1.862645149231D-09 0.000000000000D+00
    9.478889160156D+03 1.637706756592D-01 0.000000000000D+00 0.000000000000D+00
   -4.615415039062D+02 3.564158439636D+00-0.000000000000D+00 0.000000000000D+00
18 22  1 22 21 45  0.0 1.047365367413D-04 9.094947017729D-13 7.740000000000D+04
   -1.106567285156D+04 5.804777145386D-01 0.000000000000D+00 0.000000000000D+00
    1.045974560547D+04-2.751096725464D+00 0.000000000000D+00-3.000000000000D+00
   -2.046108105469D+04-1.713532447815D+00 1.862645149231D-09 0.000000000000D+00
20 22  1 22 21 45  0.0-6.352551281452D-05-0.000000000000D+00 7.740000000000D+04
    7.215073242188D+02-8.028793334961D-02 9.313225746155D-10 0.000000000000D+00
    2.278670263672D+04 1.588258743286D+00 4.656612873077D-09 2.000000000000D+00
    1.150183789062D+04-3.141156196594D+00-0.000000000000D+00 0.000000000000D+00
 9 22  1 22 21 45  0.0 3.550387918949D-05 1.818989403546D-12 7.890000000000D+04
    5.022794921875D+03-2.898113250732D+00-0.000000000000D+00 0.000000000000D+00
    1.014287402344D+04 1.180939674377D+00 0.000000000000D+00-2.000000000000D+00
   -2.284465185547D+04-1.191434860229D-01 2.793967723846D-09 0.000000000000D+00
20 22  1 22 22 15  0.0-6.352644413710D-05-0.000000000000D+00 7.920000000000D+04
    8.683100585938D+02 2.063570022583D-01 1.862645149231D-09 0.000000000000D+00
    2.492494482422D+04 7.629814147949D-01 3.725290298462D-09 2.000000000000D+00
    5.477288085938D+03-3.509462356567D+00 0.000000000000D+00 0.000000000000D+00
 6 22  1 22 22 15  0.0-2.851616591215D-05-1.818989403546D-12 7.920000000000D+04
    1.323415722656D+04-1.714769363403D+00 9.313225746155D-10 0.000000000000D+00
    1.590556835938D+04-1.118752479553D+00 3.725290298462D-09-4.000000000000D+00
    1.492483837891D+04 2.708159446716D+00-9.313225746155D-10 0.000000000000D+00
 9 22  1 22 22 15  0.0 3.550667315722D-05 1.818989403546D-12 7.920000000000D+04
    1.519091796875D+01-2.622378349304D+00 0.000000000000D+00 0.000000000000D+00
    1.260589355469D+04 1.529887199402D+00 9.313225746155D-10-2.000000000000D+00
   -2.217235156250D+04 8.610916137695D-01 2.793967723846D-09 0.000000000000D+00
15 22  1 22 22 15  0.0 9.871833026409D-05-0.000000000000D+00 7.920000000000D+04
   -2.296167089844D+04 7.747373580933D-01 1.862645149231D-09 0.000000000000D+00
    9.422424316406D+03-2.604312896729D-01-0.000000000000D+00 0.000000000000D+00
    5.888878906250D+03 3.446041107178D+00-9.313225746155D-10 0.000000000000D+00
19 22  1 22 22 15  0.0-1.754006370902D-04-9.094947017729D-13 7.920000000000D+04
   -7.552615722656D+03 3.219213485718D-01 9.313225746155D-10 0.000000000000D+00
    1.973921826172D+04-1.943675041199D+00 1.862645149231D-09 3.000000000000D+00
   -1.427571093750D+04-2.856560707092D+00 1.862645149231D-09 0.000000000000D+00
21 22  1 22 22 15  0.0-2.721380442381D-04-2.728484105319D-12 8.043000000000D+04
    8.972084472656D+03 1.258850097656D-02 9.313225746155D-10 0.000000000000D+00
    1.175219335938D+04 2.851226806641D+00 2.793967723846D-09 4.000000000000D+00
    2.078522509766D+04-1.620033264160D+00-9.313225746155D-10 0.000000000000D+00
20 22  1 22 22 45  0.0-6.352644413710D-05-0.000000000000D+00 8.100000000000D+04
    1.318128417969D+03 2.507429122925D-01 1.862645149231D-09 0.000000000000D+00
    2.547910839844D+04-1.523609161377D-01 3.725290298462D-09 2.000000000000D+00
   -9.695053710938D+02-3.607261657715D+00 9.313225746155D-10 0.000000000000D+00
19 22  1 22 22 45  0.0-1.754034310579D-04-9.094947017729D-13 8.100000000000D+04
   -7.262965332031D+03-2.985000610352D-02 9.313225746155D-10 0.000000000000D+00
    1.562901416016D+04-2.584663391113D+00 0.000000000000D+00 3.000000000000D+00
   -1.879890869141D+04-2.136561393738D+00 1.862645149231D-09 0.000000000000D+00
 9 22  1 22 22 45  0.0 3.551039844751D-05 1.818989403546D-12 8.100000000000D+04
   -4.281840332031D+03-2.121208190918D+00 0.000000000000D+00 0.000000000000D+00
    1.553303271484D+04 1.684169769287D+00 9.313225746155D-10-2.000000000000D+00
   -1.978546826172D+04 1.773606300354D+00 1.862645149231D-09 0.000000000000D+00
15 22  1 22 22 45  0.0 9.871833026409D-05-0.000000000000D+00 8.100000000000D+04
   -2.099435058594D+04 1.374125480652D+00 9.313225746155D-10 0.000000000000D+00
    8.440945800781D+03-8.508615493774D-01-0.000000000000D+00 0.000000000000D+00
    1.178398193359D+04 3.061578750610D+00-1.862645149231D-09 0.000000000000D+00
21 22  1 22 22 45  0.0-2.721436321735D-04-2.728484105319D-12 8.100000000000D+04
    9.357576660156D+03 3.901195526123D-01 1.862645149231D-09 0.000000000000D+00
    1.644297949219D+04 2.317760467529D+00 3.725290298462D-09 4.000000000000D+00
    1.710324218750D+04-2.444561958313D+00-9.313225746155D-10 0.000000000000D+00
 6 22  1 22 22 45  0.0-2.851989120245D-05-1.818989403546D-12 8.109000000000D+04
    9.515375976562D+03-2.394536972046D+00 9.313225746155D-10 0.000000000000D+00
    1.389202978516D+04-1.077413558960D+00 2.793967723846D-09-4.000000000000D+00
    1.915977148438D+04 1.966716766357D+00-9.313225746155D-10 0.000000000000D+00
20 22  1 22 23 15  0.0-6.352737545967D-05-0.000000000000D+00 8.280000000000D+04
    1.618333984375D+03 4.228782653809D-02 1.862645149231D-09 0.000000000000D+00
    2.439478076172D+04-1.037313461304D+00 2.793967723846D-09 2.000000000000D+00
   -7.341489257812D+03-3.426837921143D+00 1.862645149231D-09 0.000000000000D+00
19 22  1 22 23 15  0.0-1.754062250257D-04-9.094947017729D-13 8.280000000000D+04
   -7.739887207031D+03-5.137920379639D-01-0.000000000000D+00 0.000000000000D+00
    1.059552392578D+04-2.958551406860D+00-0.000000000000D+00 3.000000000000D+00
   -2.186790869141D+04-1.251286506653D+00 1.862645149231D-09 0.000000000000D+00
 9 22  1 22 23 15  0.0 3.551505506039D-05 2.728484105319D-12 8.280000000000D+04
   -7.539347167969D+03-1.484282493591D+00 9.313225746155D-10 0.000000000000D+00
    1.851719873047D+04 1.587009429932D+00 0.000000000000D+00-2.000000000000D+00
   -1.587035839844D+04 2.548172950745D+00 1.862645149231D-09 0.000000000000D+00
15 22  1 22 23 15  0.0 9.871833026409D-05-0.000000000000D+00 8.280000000000D+04
   -1.816525732422D+04 1.724208831787D+00 9.313225746155D-10 0.000000000000D+00
    6.314806152344D+03-1.514914512634D+00-9.313225746155D-10 0.000000000000D+00
    1.676836523438D+04 2.440734863281D+00-1.862645149231D-09 0.000000000000D+00
21 22  1 22 23 15  0.0-2.721482887864D-04-2.728484105319D-12 8.280000000000D+04
    1.025993115234D+04 5.745286941528D-01 2.793967723846D-09 0.000000000000D+00
    1.996640087891D+04 1.569169998169D+00 3.725290298462D-09 4.000000000000D+00
    1.209832812500D+04-3.080370903015D+00-0.000000000000D+00 0.000000000000D+00
 6 22  1 22 23 15  0.0-2.852361649275D-05-1.818989403546D-12 8.364000000000D+04
    4.725312988281D+03-2.889372825623D+00 1.862645149231D-09 0.000000000000D+00
    1.215970263672D+04-8.159809112549D-01 1.862645149231D-09-4.000000000000D+00
    2.191330859375D+04 1.072826385498D+00-1.862645149231D-09 0.000000000000D+00
10 22  1 22 23 15  0.0-7.913075387478D-05-0.000000000000D+00 8.454000000000D+04
    6.289856933594D+03-2.228829383850D+00 0.000000000000D+00 0.000000000000D+00
    9.230102050781D+03 2.208334922791D+00 9.313225746155D-10-7.000000000000D+00
   -2.294155126953D+04 2.847995758057D-01 2.793967723846D-09 0.000000000000D+00
20 22  1 22 23 45  0.0-6.352830678225D-05-0.000000000000D+00 8.460000000000D+04
    1.339339355469D+03-3.831672668457D-01 1.862645149231D-09 0.000000000000D+00
    2.183274072266D+04-1.776461601257D+00 9.313225746155D-10 2.000000000000D+00
   -1.314694921875D+04-2.981812477112D+00 1.862645149231D-09 0.000000000000D+00
 9 22  1 22 23 45  0.0 3.551878035069D-05 2.728484105319D-12 8.460000000000D+04
   -9.608162109375D+03-8.188552856445D-01 1.862645149231D-09 0.000000000000D+00
    2.108512011719D+04 1.222776412964D+00 0.000000000000D+00-2.000000000000D+00
   -1.073072802734D+04 3.125452995300D+00 9.313225746155D-10 0.000000000000D+00
21 22  1 22 23 45  0.0-2.721538767219D-04-2.728484105319D-12 8.460000000000D+04
    1.127649804688D+04 5.114803314209D-01 2.793967723846D-09 0.000000000000D+00
    2.202469628906D+04 7.089443206787D-01 2.793967723846D-09 4.000000000000D+00
    6.157172363281D+03-3.478026390076D+00 0.000000000000D+00 0.000000000000D+00
10 22  1 22 23 45  0.0-7.913075387478D-05-0.000000000000D+00 8.460000000000D+04
    2.664858886719D+03-1.772079467773D+00 0.000000000000D+00 0.000000000000D+00
    1.337850488281D+04 2.357528686523D+00 9.313225746155D-10-7.000000000000D+00
   -2.154922900391D+04 1.252420425415D+00 2.793967723846D-09 0.000000000000D+00
